[{"epoch":"2024-09-04T19:21:51.579936","mean_motion":1.00287512,"eccentricity":0.0010292,"inclination":31.3664,"ra_of_asc_node":309.586,"arg_of_pericenter":196.2743,"mean_anomaly":196.3624,"element_set_no":999,"rev_at_epoch":22384,"launch_date":"1963-07-26","launch_site":"AFETR","period":1435.87,"apogee":35826.0,"perigee":35738,"rcs":2.1538,"orbit_center":"EA","orbit_type":"ORB","norad_cat_id":634,"object_name":"SYNCOM 2 (A 26)","object_id":"1963-031A","object_type":"PAY","ops_status_code":"-","owner":"US","categories":["communication"],"tags":["gpz-plus","gpz"]},{"epoch":"2024-09-06T01:21:03.390336","mean_motion":1.00393438,"eccentricity":0.0004313,"inclination":5.3687,"ra_of_asc_node":70.8357,"arg_of_pericenter":127.5428,"mean_anomaly":67.9668,"element_set_no":999,"rev_at_epoch":18222,"launch_date":"1964-08-19","launch_site":"AFETR","period":1434.35,"apogee":35770.0,"perigee":35734,"rcs":2.5119,"orbit_center":"EA","orbit_type":"ORB","norad_cat_id":858,"object_name":"SYNCOM 3","object_id":"1964-047A","object_type":"PAY","ops_status_code":"-","owner":"US","categories":["communication"],"tags":["gpz-plus","gpz"]},{"epoch":"2024-09-06T10:37:23.145600","mean_motion":2.05104584,"eccentricity":0.7100479,"inclination":15.7564,"ra_of_asc_node":159.0329,"arg_of_pericenter":39.2401,"mean_anomaly":354.8887,"element_set_no":999,"rev_at_epoch":24513,"launch_date":"1964-08-19","launch_site":"AFETR","period":702.07,"apogee":38365.0,"perigee":1212,"rcs":0.6552,"orbit_center":"EA","orbit_type":"ORB","norad_cat_id":862,"object_name":"DELTA 1 R/B","object_id":"1964-047B","object_type":"R/B","ops_status_code":null,"owner":"US","categories":["communication"],"tags":["gpz-plus"]},{"epoch":"2024-09-06T11:36:41.194368","mean_motion":13.75280442,"eccentricity":0.0027677,"inclination":90.2036,"ra_of_asc_node":57.1062,"arg_of_pericenter":95.3143,"mean_anomaly":319.4471,"element_set_no":999,"rev_at_epoch":98220,"launch_date":"1964-10-06","launch_site":"AFWTR","period":104.71,"apogee":1001.0,"perigee":960,"rcs":0.051,"orbit_center":"EA","orbit_type":"ORB","norad_cat_id":900,"object_name":"CALSPHERE 1","object_id":"1964-063C","object_type":"PAY","ops_status_code":"+","owner":"US","categories":["misc"],"tags":["radar"]},{"epoch":"2024-09-05T23:16:14.674656","mean_motion":13.52813886,"eccentricity":0.0017054,"inclination":90.2169,"ra_of_asc_node":60.7607,"arg_of_pericenter":316.7105,"mean_anomaly":215.5865,"element_set_no":999,"rev_at_epoch":76848,"launch_date":"1964-10-06","launch_site":"AFWTR","period":106.44,"apogee":1075.0,"perigee":1049,"rcs":0.0457,"orbit_center":"EA","orbit_type":"ORB","norad_cat_id":902,"object_name":"CALSPHERE 2","object_id":"1964-063E","object_type":"PAY","ops_status_code":"+","owner":"US","categories":["misc"],"tags":["radar"]},{"epoch":"2024-09-06T10:23:04.229376","mean_motion":13.56903869,"eccentricity":0.0042086,"inclination":90.051,"ra_of_asc_node":198.6961,"arg_of_pericenter":17.8612,"mean_anomaly":96.0607,"element_set_no":999,"rev_at_epoch":95619,"launch_date":"1964-12-13","launch_site":"AFWTR","period":106.12,"apogee":1078.0,"perigee":1016,"rcs":1.0078,"orbit_center":"EA","orbit_type":"ORB","norad_cat_id":965,"object_name":"OPS 6582 (TRANSIT 5B-5)","object_id":"1964-083D","object_type":"PAY","ops_status_code":null,"owner":"US","categories":["communication"],"tags":["satnogs"]},{"epoch":"2024-09-05T00:24:39.512736","mean_motion":9.88354296,"eccentricity":0.0014284,"inclination":32.1404,"ra_of_asc_node":144.9273,"arg_of_pericenter":85.8357,"mean_anomaly":274.3772,"element_set_no":999,"rev_at_epoch":15186,"launch_date":"1965-02-11","launch_site":"AFETR","period":145.7,"apogee":2807.0,"perigee":2781,"rcs":0.6539,"orbit_center":"EA","orbit_type":"ORB","norad_cat_id":1002,"object_name":"LES-1","object_id":"1965-008C","object_type":"PAY","ops_status_code":null,"owner":"US","categories":["communication"],"tags":["satnogs"]},{"epoch":"2024-09-06T05:28:37.874496","mean_motion":13.94817301,"eccentricity":0.0023688,"inclination":70.0794,"ra_of_asc_node":175.8335,"arg_of_pericenter":255.2996,"mean_anomaly":104.5484,"element_set_no":999,"rev_at_epoch":2669,"launch_date":"1965-03-09","launch_site":"AFWTR","period":103.24,"apogee":929.0,"perigee":895,"rcs":0.4786,"orbit_center":"EA","orbit_type":"ORB","norad_cat_id":1291,"object_name":"SOLRAD 7B","object_id":"1965-016D","object_type":"PAY","ops_status_code":null,"owner":"US","categories":["communication"],"tags":["satnogs"]},{"epoch":"2024-09-05T18:40:12.955872","mean_motion":12.92645186,"eccentricity":0.0032882,"inclination":90.2476,"ra_of_asc_node":1.0782,"arg_of_pericenter":96.034,"mean_anomaly":33.4019,"element_set_no":999,"rev_at_epoch":80302,"launch_date":"1965-04-03","launch_site":"AFWTR","period":111.4,"apogee":1316.0,"perigee":1266,"rcs":0.172,"orbit_center":"EA","orbit_type":"ORB","norad_cat_id":1315,"object_name":"SECOR 4 (EGRS 4)","object_id":"1965-027B","object_type":"PAY","ops_status_code":null,"owner":"US","categories":["communication"],"tags":["satnogs"]},{"epoch":"2024-09-05T07:40:50.256768","mean_motion":1.0036558,"eccentricity":0.000785,"inclination":5.5643,"ra_of_asc_node":70.0242,"arg_of_pericenter":118.6985,"mean_anomaly":165.4654,"element_set_no":999,"rev_at_epoch":12065,"launch_date":"1965-04-06","launch_site":"AFETR","period":1434.76,"apogee":35793.0,"perigee":35727,"rcs":0.7943,"orbit_center":"EA","orbit_type":"ORB","norad_cat_id":1317,"object_name":"INTELSAT 1-F1","object_id":"1965-028A","object_type":"PAY","ops_status_code":"-","owner":"ITSO","categories":["communication"],"tags":["gpz-plus","gpz"]}]